HST                     
1 20580U 90037B   26068.15977042  .00009063  00000+0  30023-3 0  9999
2 20580  28.4717  43.6133 0001837 120.9992 239.0785 15.29473555773239
STARLINK-34429          
1 64464U 25130AC  26068.29517578  .00023807  00000+0  81316-3 0  9992
2 64464  53.1593  90.2926 0001715  34.6476 325.4637 15.30206785 40645
